EUTELSAT QUANTUM        
1 49056U 21069B   25256.16754743  .00000118  00000+0  00000+0 0  9997
2 49056   0.0303 300.5738 0002398 263.2590 256.5922  1.00271842 15155
EUTELSAT KONNECT VHTS   
1 53765U 22110A   25256.15853405  .00000009  00000+0  00000+0 0  9990
2 53765   0.0512 104.6360 0002527  60.8269 246.6992  1.00268816  4041
EUTELSAT HOTBIRD 13F    
1 54048U 22134A   25256.16061406  .00000079  00000+0  00000+0 0  9991
2 54048   0.0574 290.8590 0001893  61.0622  71.3053  1.00272002 10598
EUTELSAT HOTBIRD 13G    
1 54225U 22146A   25255.87513271  .00000081  00000+0  00000+0 0  9993
2 54225   0.0485 229.3537 0002267 315.3506 135.4708  1.00274009  4687
EUTELSAT 10B            
1 54259U 22157A   25256.16000738  .00000060  00000+0  00000+0 0  9991
2 54259   0.0535 103.2201 0001597   0.7276 316.0376  1.00267619 10237
EUTELSAT 36D            
1 59346U 24059A   25256.16512075  .00000148  00000+0  00000+0 0  9995
2 59346   0.0180 184.1719 0000188  45.5014 218.0367  1.00269448  5360
