<?xml version="1.0" encoding="UTF-8"?>
<ndm xmlns:xsi="http://www.w3.org/2001/XMLSchema-instance" xsi:noNamespaceSchemaLocation="https://sanaregistry.org/r/ndmxml_unqualified/ndmxml-2.0.0-master-2.0.xsd">
<omm id="CCSDS_OMM_VERS" version="2.0">
<header><CREATION_DATE/><ORIGINATOR/></header><body><segment><metadata><OBJECT_NAME>EUTELSAT QUANTUM</OBJECT_NAME><OBJECT_ID>2021-069B</OBJECT_ID><CENTER_NAME>EARTH</CENTER_NAME><REF_FRAME>TEME</REF_FRAME><TIME_SYSTEM>UTC</TIME_SYSTEM><MEAN_ELEMENT_THEORY>SGP4</MEAN_ELEMENT_THEORY></metadata><data><meanElements><EPOCH>2025-09-13T04:01:16.097952</EPOCH><MEAN_MOTION>1.00271842</MEAN_MOTION><ECCENTRICITY>.00023986</ECCENTRICITY><INCLINATION>0.0303</INCLINATION><RA_OF_ASC_NODE>300.5738</RA_OF_ASC_NODE><ARG_OF_PERICENTER>263.2590</ARG_OF_PERICENTER><MEAN_ANOMALY>256.5922</MEAN_ANOMALY></meanElements><tleParameters><EPHEMERIS_TYPE>0</EPHEMERIS_TYPE><CLASSIFICATION_TYPE>U</CLASSIFICATION_TYPE><NORAD_CAT_ID>49056</NORAD_CAT_ID><ELEMENT_SET_NO>999</ELEMENT_SET_NO><REV_AT_EPOCH>1515</REV_AT_EPOCH><BSTAR>0</BSTAR><MEAN_MOTION_DOT>.118E-5</MEAN_MOTION_DOT><MEAN_MOTION_DDOT>0</MEAN_MOTION_DDOT></tleParameters></data></segment></body></omm>
<omm id="CCSDS_OMM_VERS" version="2.0">
<header><CREATION_DATE/><ORIGINATOR/></header><body><segment><metadata><OBJECT_NAME>EUTELSAT KONNECT VHTS</OBJECT_NAME><OBJECT_ID>2022-110A</OBJECT_ID><CENTER_NAME>EARTH</CENTER_NAME><REF_FRAME>TEME</REF_FRAME><TIME_SYSTEM>UTC</TIME_SYSTEM><MEAN_ELEMENT_THEORY>SGP4</MEAN_ELEMENT_THEORY></metadata><data><meanElements><EPOCH>2025-09-13T03:48:17.341920</EPOCH><MEAN_MOTION>1.00268816</MEAN_MOTION><ECCENTRICITY>.00025273</ECCENTRICITY><INCLINATION>0.0512</INCLINATION><RA_OF_ASC_NODE>104.6360</RA_OF_ASC_NODE><ARG_OF_PERICENTER>60.8269</ARG_OF_PERICENTER><MEAN_ANOMALY>246.6992</MEAN_ANOMALY></meanElements><tleParameters><EPHEMERIS_TYPE>0</EPHEMERIS_TYPE><CLASSIFICATION_TYPE>U</CLASSIFICATION_TYPE><NORAD_CAT_ID>53765</NORAD_CAT_ID><ELEMENT_SET_NO>999</ELEMENT_SET_NO><REV_AT_EPOCH>404</REV_AT_EPOCH><BSTAR>0</BSTAR><MEAN_MOTION_DOT>.9E-7</MEAN_MOTION_DOT><MEAN_MOTION_DDOT>0</MEAN_MOTION_DDOT></tleParameters></data></segment></body></omm>
<omm id="CCSDS_OMM_VERS" version="2.0">
<header><CREATION_DATE/><ORIGINATOR/></header><body><segment><metadata><OBJECT_NAME>EUTELSAT HOTBIRD 13F</OBJECT_NAME><OBJECT_ID>2022-134A</OBJECT_ID><CENTER_NAME>EARTH</CENTER_NAME><REF_FRAME>TEME</REF_FRAME><TIME_SYSTEM>UTC</TIME_SYSTEM><MEAN_ELEMENT_THEORY>SGP4</MEAN_ELEMENT_THEORY></metadata><data><meanElements><EPOCH>2025-09-13T03:51:17.054784</EPOCH><MEAN_MOTION>1.00272002</MEAN_MOTION><ECCENTRICITY>.00018938</ECCENTRICITY><INCLINATION>0.0574</INCLINATION><RA_OF_ASC_NODE>290.8590</RA_OF_ASC_NODE><ARG_OF_PERICENTER>61.0622</ARG_OF_PERICENTER><MEAN_ANOMALY>71.3053</MEAN_ANOMALY></meanElements><tleParameters><EPHEMERIS_TYPE>0</EPHEMERIS_TYPE><CLASSIFICATION_TYPE>U</CLASSIFICATION_TYPE><NORAD_CAT_ID>54048</NORAD_CAT_ID><ELEMENT_SET_NO>999</ELEMENT_SET_NO><REV_AT_EPOCH>1059</REV_AT_EPOCH><BSTAR>0</BSTAR><MEAN_MOTION_DOT>.79E-6</MEAN_MOTION_DOT><MEAN_MOTION_DDOT>0</MEAN_MOTION_DDOT></tleParameters></data></segment></body></omm>
<omm id="CCSDS_OMM_VERS" version="2.0">
<header><CREATION_DATE/><ORIGINATOR/></header><body><segment><metadata><OBJECT_NAME>EUTELSAT HOTBIRD 13G</OBJECT_NAME><OBJECT_ID>2022-146A</OBJECT_ID><CENTER_NAME>EARTH</CENTER_NAME><REF_FRAME>TEME</REF_FRAME><TIME_SYSTEM>UTC</TIME_SYSTEM><MEAN_ELEMENT_THEORY>SGP4</MEAN_ELEMENT_THEORY></metadata><data><meanElements><EPOCH>2025-09-12T21:00:11.466144</EPOCH><MEAN_MOTION>1.00274009</MEAN_MOTION><ECCENTRICITY>.00022678</ECCENTRICITY><INCLINATION>0.0485</INCLINATION><RA_OF_ASC_NODE>229.3537</RA_OF_ASC_NODE><ARG_OF_PERICENTER>315.3506</ARG_OF_PERICENTER><MEAN_ANOMALY>135.4708</MEAN_ANOMALY></meanElements><tleParameters><EPHEMERIS_TYPE>0</EPHEMERIS_TYPE><CLASSIFICATION_TYPE>U</CLASSIFICATION_TYPE><NORAD_CAT_ID>54225</NORAD_CAT_ID><ELEMENT_SET_NO>999</ELEMENT_SET_NO><REV_AT_EPOCH>468</REV_AT_EPOCH><BSTAR>0</BSTAR><MEAN_MOTION_DOT>.81E-6</MEAN_MOTION_DOT><MEAN_MOTION_DDOT>0</MEAN_MOTION_DDOT></tleParameters></data></segment></body></omm>
<omm id="CCSDS_OMM_VERS" version="2.0">
<header><CREATION_DATE/><ORIGINATOR/></header><body><segment><metadata><OBJECT_NAME>EUTELSAT 10B</OBJECT_NAME><OBJECT_ID>2022-157A</OBJECT_ID><CENTER_NAME>EARTH</CENTER_NAME><REF_FRAME>TEME</REF_FRAME><TIME_SYSTEM>UTC</TIME_SYSTEM><MEAN_ELEMENT_THEORY>SGP4</MEAN_ELEMENT_THEORY></metadata><data><meanElements><EPOCH>2025-09-13T03:50:24.637632</EPOCH><MEAN_MOTION>1.00267619</MEAN_MOTION><ECCENTRICITY>.00015973</ECCENTRICITY><INCLINATION>0.0535</INCLINATION><RA_OF_ASC_NODE>103.2201</RA_OF_ASC_NODE><ARG_OF_PERICENTER>0.7276</ARG_OF_PERICENTER><MEAN_ANOMALY>316.0376</MEAN_ANOMALY></meanElements><tleParameters><EPHEMERIS_TYPE>0</EPHEMERIS_TYPE><CLASSIFICATION_TYPE>U</CLASSIFICATION_TYPE><NORAD_CAT_ID>54259</NORAD_CAT_ID><ELEMENT_SET_NO>999</ELEMENT_SET_NO><REV_AT_EPOCH>1023</REV_AT_EPOCH><BSTAR>0</BSTAR><MEAN_MOTION_DOT>.6E-6</MEAN_MOTION_DOT><MEAN_MOTION_DDOT>0</MEAN_MOTION_DDOT></tleParameters></data></segment></body></omm>
<omm id="CCSDS_OMM_VERS" version="2.0">
<header><CREATION_DATE/><ORIGINATOR/></header><body><segment><metadata><OBJECT_NAME>EUTELSAT 36D</OBJECT_NAME><OBJECT_ID>2024-059A</OBJECT_ID><CENTER_NAME>EARTH</CENTER_NAME><REF_FRAME>TEME</REF_FRAME><TIME_SYSTEM>UTC</TIME_SYSTEM><MEAN_ELEMENT_THEORY>SGP4</MEAN_ELEMENT_THEORY></metadata><data><meanElements><EPOCH>2025-09-13T03:57:46.432800</EPOCH><MEAN_MOTION>1.00269448</MEAN_MOTION><ECCENTRICITY>.00001886</ECCENTRICITY><INCLINATION>0.0180</INCLINATION><RA_OF_ASC_NODE>184.1719</RA_OF_ASC_NODE><ARG_OF_PERICENTER>45.5014</ARG_OF_PERICENTER><MEAN_ANOMALY>218.0367</MEAN_ANOMALY></meanElements><tleParameters><EPHEMERIS_TYPE>0</EPHEMERIS_TYPE><CLASSIFICATION_TYPE>U</CLASSIFICATION_TYPE><NORAD_CAT_ID>59346</NORAD_CAT_ID><ELEMENT_SET_NO>999</ELEMENT_SET_NO><REV_AT_EPOCH>536</REV_AT_EPOCH><BSTAR>0</BSTAR><MEAN_MOTION_DOT>.148E-5</MEAN_MOTION_DOT><MEAN_MOTION_DDOT>0</MEAN_MOTION_DDOT></tleParameters></data></segment></body></omm>
</ndm>
